NOAA 17 DEB             
1 48739U 02032BY  24295.51094833  .00107823  00000+0  12342-1 0  9996
2 48739  98.7890 314.7372 0027382   4.5843 355.5614 14.85116920189494
NOAA 17 DEB             
1 48740U 02032BZ  24282.28575965  .00555731  00000+0  75035-1 0  9991
2 48740  98.7593 291.1530 0034330  39.5379 320.8323 14.76252876187292
NOAA 17 DEB             
1 48741U 02032CA  24297.62765185  .00026159  00000+0  69931-2 0  9997
2 48741  98.6804 256.2632 0003489 196.5644 163.5435 14.48243686187252
NOAA 17 DEB             
1 48742U 02032CB  24296.85452446  .00018476  00000+0  57623-2 0  9993
2 48742  98.7461 257.5626 0020278 335.4351  24.5869 14.40752455186745
NOAA 17 DEB             
1 48744U 02032CD  24297.40223409  .00011901  00000+0  38983-2 0  9996
2 48744  98.8818 278.4496 0012479 229.1106 130.9000 14.38529400186739
NOAA 17 DEB             
1 48745U 02032CE  24298.53454151  .00042632  00000+0  78295-2 0  9997
2 48745  98.8908 321.2101 0040346  48.9197 311.5477 14.64972878188974
NOAA 17 DEB             
1 48746U 02032CF  24295.30771431  .00022883  00000+0  79806-2 0  9998
2 48746  98.7475 239.8776 0052210 310.2347  49.4276 14.34506083185272
NOAA 17 DEB             
1 48747U 02032CG  24297.40194163  .00020483  00000+0  43986-2 0  9997
2 48747  99.0553 341.1837 0035289  86.2186 274.3044 14.58217731188424
NOAA 17 DEB             
1 48748U 02032CH  24282.33193566  .00164936  00000+0  54846-1 0  9998
2 48748  98.7304 233.9796 0027616 305.2573  54.6029 14.36288828184122
NOAA 17 DEB             
1 48749U 02032CJ  24298.33129174  .00026733  00000+0  74832-2 0  9990
2 48749  98.6922 256.6959 0003011 317.5267  42.5690 14.46028613186688
NOAA 17 DEB             
1 48750U 02032CK  24298.31632516  .00056054  00000+0  98608-2 0  9995
2 48750  98.9588 321.3706 0039200 130.4830 229.9799 14.66818877187849
NOAA 17 DEB             
1 48752U 02032CM  24298.42342035  .00049541  00000+0  86106-2 0  9996
2 48752  98.7240 292.0160 0028671  12.3879 347.8022 14.67636155188470
NOAA 17 DEB             
1 48753U 02032CN  24297.62900252  .00017800  00000+0  54498-2 0  9991
2 48753  98.7206 254.4970 0024547 202.6987 157.3117 14.41611484186248
NOAA 17 DEB             
1 48754U 02032CP  24282.25806164  .00197590  00000+0  52466-1 0  9999
2 48754  98.9637 282.9126 0015527 251.0830 108.8678 14.47150551184498
NOAA 17 DEB             
1 48755U 02032CQ  24294.42612303  .00109908  00000+0  22722-1 0  9990
2 48755  98.7163 278.5556 0027997  33.8479 326.4499 14.59396216187437
NOAA 17 DEB             
1 48756U 02032CR  24282.39168286  .00416572  00000+0  11246+0 0  9995
2 48756  98.7903 254.2030 0009668 326.9496  33.1089 14.45618930183852
NOAA 17 DEB             
1 48757U 02032CS  24298.37585830  .00086118  00000+0  16109-1 0  9993
2 48757  98.6365 261.9854 0029679 115.9968 244.4295 14.64075443184435
NOAA 17 DEB             
1 48758U 02032CT  24285.33211518  .00250527  00000+0  74376-1 0  9992
2 48758  98.7149 242.9572 0006156 315.1934  44.8756 14.41426213184237
NOAA 17 DEB             
1 48759U 02032CU  24297.78081639  .00045143  00000+0  71307-2 0  9992
2 48759  98.8332 311.1592 0036959 310.4578  49.3406 14.71688321188060
NOAA 17 DEB             
1 48760U 02032CV  24282.41454254  .00433696  00000+0  82798-1 0  9994
2 48760  98.7267 272.1788 0031886  57.3263 303.1005 14.61563153184474
NOAA 17 DEB             
1 48761U 02032CW  24297.36543852  .00020203  00000+0  55378-2 0  9999
2 48761  98.7009 259.6073 0006045   3.2235 356.8995 14.47107431185240
NOAA 17 DEB             
1 48765U 02032DA  24297.90004836  .00028531  00000+0  65032-2 0  9997
2 48765  98.6948 273.3518 0021035  32.6707 327.5786 14.55618079185144
NOAA 17 DEB             
1 48766U 02032DB  24297.28911222  .00018414  00000+0  56652-2 0  9992
2 48766  98.5763 235.6924 0007247 313.0684  46.9898 14.41523318183937
NOAA 17 DEB             
1 49474U 02032DC  24285.33096516  .00289085  00000+0  83494-1 0  9999
2 49474  98.6810 239.4029 0002195 357.6779   2.4399 14.42482697174828
NOAA 17 DEB             
1 49476U 02032DE  24285.34292022  .00305375  00000+0  82932-1 0  9999
2 49476  98.6981 245.4016 0001730 266.1432  93.9561 14.45672879175122
NOAA 17 DEB             
1 49478U 02032DG  24298.40871439  .00023304  00000+0  64910-2 0  9993
2 49478  98.8606 282.2075 0005617 194.3333 165.7699 14.46301793176782
NOAA 17 DEB             
1 49479U 02032DH  24298.29155334  .00003202  00000+0  89930-3 0  9995
2 49479  98.8673 305.2696 0065086  26.5990 333.8515 14.45449534178011
NOAA 17 DEB             
1 49481U 02032DK  24299.35018957  .00046350  00000+0  11539-1 0  9994
2 49481  98.7129 260.6693 0018918 318.3896  41.5857 14.51347024176534
NOAA 17 DEB             
1 49482U 02032DL  24294.92463891  .00078335  00000+0  13667-1 0  9996
2 49482  98.7271 284.1411 0025519  33.1303 327.1492 14.67316674175443
NOAA 17 DEB             
1 49483U 02032DM  24299.52639901  .00256147  00000+0  18516-1 0  9992
2 49483  98.7200 301.5191 0026568  55.4444 304.9279 15.02459879176625
NOAA 17 DEB             
1 49484U 02032DN  24294.35607041  .00290653  00000+0  53221-1 0  9991
2 49484  98.6793 261.2370 0001115 166.6414 193.4817 14.63871143174148
NOAA 17 DEB             
1 49487U 02032DR  24297.43349292  .00019857  00000+0  51459-2 0  9994
2 49487  98.8342 285.3757 0037249 352.1413   7.9191 14.49395809188881
NOAA 17 DEB             
1 49489U 02032DT  24297.71998856  .00032972  00000+0  66929-2 0  9994
2 49489  98.7935 291.7095 0051313 100.0896 260.6097 14.60219571168053
